CANX-7                  
1 41788U 16059F   22088.58874138  .00452159  00000+0  18717-1 0  9993
2 41788  98.2155 213.3123 0018368 293.6228 129.5900 15.21744573296476
SCATSAT 1               
1 41790U 16059H   22088.88720217  .00000197  00000+0  61329-4 0  9998
2 41790  98.3307 133.6562 0006468  88.9498 271.2437 14.50850928291537
GSAT-18                 
1 41793U 16060A   22088.72558493 -.00000098  00000+0  00000+0 0  9996
2 41793   0.0617 102.8719 0001569 303.9311 115.4806  1.00270903 20097
SKY MUSTER 2 (NBN1B)    
1 41794U 16060B   22088.88318819 -.00000266  00000+0  00000+0 0  9997
2 41794   0.0136 240.3105 0001421 132.4445 277.2282  1.00269710 20124
HIMAWARI-9              
1 41836U 16064A   22088.73884209 -.00000297  00000+0  00000+0 0  9997
2 41836   0.0100 215.6626 0001059 200.9631 177.2164  1.00270472 19741
SHIJIAN-17 (SJ-17)      
1 41838U 16065A   22088.94202525 -.00000382  00000+0  00000+0 0  9993
2 41838   1.8293  90.3261 0001663   3.4892 190.0809  1.00266757 19766
XPNAV-1                 
1 41841U 16066A   22089.25544157  .00003922  00000+0  16220-3 0  9990
2 41841  97.4128  97.9482 0013272 214.2386 201.5085 15.24483896299169
XIAOXIANG 1             
1 41842U 16066B   22089.01566703  .00006404  00000+0  24658-3 0  9998
2 41842  97.4026  99.8867 0012667 207.2731 208.4980 15.26637975299338
PINA 2A                 
1 41843U 16066C   22089.21553704  .00011189  00000+0  29756-3 0  9998
2 41843  97.4062 102.5886 0050903 234.0771 191.1985 15.37064023299501
PINA 2B                 
1 41844U 16066D   22089.25053418  .00010958  00000+0  40057-3 0  9990
2 41844  97.3950 101.7195 0012746 200.9535 217.6043 15.28182019299509
LISHUI 1-01             
1 41845U 16066E   22089.09805095  .00010845  00000+0  12319-2 0  9993
2 41845  98.7270 214.3997 0232812 317.4443  40.9034 14.68823493285166
CAS-2T & KS-1Q          
1 41847U 16066G   22088.91129022  .00001205  00000+0  18878-3 0  9991
2 41847  98.5592 153.6420 0365455  87.7896 276.5083 14.38443097282914
RAVAN                   
1 41849U 16067B   22088.88473181  .00004424  00000+0  35987-3 0  9994
2 41849  97.9914 223.6456 0013435 235.3952 124.6004 15.00034471294063
CELTEE 1                
1 41850U 16067C   22088.90553670  .00003593  00000+0  30925-3 0  9994
2 41850  97.9836 219.0316 0007324 232.9725 127.0827 14.98017014293848
OPTICUBE 04             
1 41851U 16067D   22088.92038893  .00001691  00000+0  15038-3 0  9997
2 41851  97.9834 218.1952 0007251 241.1105 118.9389 14.97492563293809
AEROCUBE 8D             
1 41852U 16067E   22088.88818832  .00003136  00000+0  27175-3 0  9993
2 41852  97.9799 218.1138 0008777 239.7859 120.2493 14.97846741293789
AEROCUBE 8C             
1 41853U 16067F   22088.86763719  .00002653  00000+0  23087-3 0  9996
2 41853  97.9805 217.9273 0008900 245.3810 114.6484 14.97820751293772
PROMETHEUS 2-1          
1 41854U 16067G   22088.89033413  .00005259  00000+0  44256-3 0  9997
2 41854  97.9801 218.8763 0009760 237.5627 122.4651 14.98662122293823
PROMETHEUS 2-3          
1 41855U 16067H   22088.88416013  .00005149  00000+0  43313-3 0  9999
2 41855  97.9803 218.9436 0010197 240.8367 119.1835 14.98685184293828
YUNHAI 1                
1 41857U 16068A   22089.19002960  .00000322  00000+0  13452-3 0  9998
2 41857  98.5841  92.1053 0015319 219.7073 140.2993 14.32608169281289
GSAT0207 (GALILEO 15)   
1 41859U 16069A   22087.20514148  .00000015  00000+0  00000+0 0  9997
2 41859  54.7883 143.8361 0004926 287.9097  72.1115  1.70473473 33114
GSAT0212 (GALILEO 16)   
1 41860U 16069B   22088.23172930  .00000020  00000+0  00000+0 0  9998
2 41860  54.7862 143.8053 0003438 306.2484  53.8002  1.70473481 33382
GSAT0213 (GALILEO 17)   
1 41861U 16069C   22088.01060736  .00000019  00000+0  00000+0 0  9993
2 41861  54.7883 143.8166 0004831 268.6398  91.3840  1.70473606 33245
GSAT0214 (GALILEO 18)   
1 41862U 16069D   22088.15768542  .00000020  00000+0  00000+0 0  9991
2 41862  54.7882 143.8071 0003891 270.9838  89.0516  1.70473627 33371
GOES 16                 
1 41866U 16071A   22088.55228247 -.00000270  00000+0  00000+0 0  9993
2 41866   0.0696 289.5190 0000889 122.2117 258.7833  1.00272546 19668
TIANLIAN 1-04           
1 41869U 16072A   22088.84022503  .00000009  00000+0  00000+0 0  9995
2 41869   0.1340 275.7965 0022369 195.3081 195.3560  1.00271219 19886
LEMUR-2-XIAOQING        
1 41871U 16062C   22088.79497114  .00024480  00000+0  75208-3 0  9990
2 41871  51.6395  18.3619 0004681  40.9249 319.2084 15.33556734297712
LEMUR-2-SOKOLSKY        
1 41872U 16062D   22088.63031268  .00016063  00000+0  49941-3 0  9991
2 41872  51.6818  28.4817 0003829 117.3655 242.7717 15.33468555297657
LEMUR-2-ANUBHAVTHAKUR   
1 41873U 16062E   22088.91503015  .00008919  00000+0  35115-3 0  9996
2 41873  51.6832  60.9170 0008476   3.0636 357.0393 15.26328414297189
LEMUR-2-WINGO           
1 41874U 16062F   22089.10076480  .00024692  00000+0  77884-3 0  9995
2 41874  51.6513  26.2168 0008354 297.9128  62.1007 15.32691672297646
GOKTURK 1A              
1 41875U 16073A   22089.13222439  .00000219  00000+0  52059-4 0  9995
2 41875  98.1415 345.1658 0001412  82.0117 278.1250 14.62769450283680
RESOURCESAT-2A          
1 41877U 16074A   22089.20426580  .00000045  00000+0  40466-4 0  9995
2 41877  98.7220 165.3954 0001648 153.7649 206.3619 14.21626159275507
WGS F8 (USA 272)        
1 41879U 16075A   22088.95592815 -.00000223  00000+0  00000+0 0  9998
2 41879   0.0079  93.2591 0000468 351.3010 236.6711  1.00275484 19475
FENGYUN 4A              
1 41882U 16077A   22085.90431221 -.00000346  00000+0  00000+0 0  9995
2 41882   0.2138  88.2333 0005337 347.8738 178.1683  1.00263106 19502
CYGFM05                 
1 41884U 16078A   22089.02523360  .00003670  00000+0  18914-3 0  9990
2 41884  34.9569 336.3322 0014130 100.1810 260.0496 15.15784591292821
CYGFM04                 
1 41885U 16078B   22088.84138714  .00003957  00000+0  20085-3 0  9995
2 41885  34.9499 327.1511 0012645 115.3815 244.8207 15.16299815292735
CYGFM02                 
1 41886U 16078C   22088.70204729  .00003709  00000+0  18827-3 0  9997
2 41886  34.9591 330.1933 0013320 107.7550 252.4617 15.16317270292795
CYGFM01                 
1 41887U 16078D   22088.88424427  .00003822  00000+0  19812-3 0  9997
2 41887  34.9536 339.4589 0014581  98.0193 262.2173 15.15558799292652
CYGFM08                 
1 41888U 16078E   22088.82695441  .00003553  00000+0  18197-3 0  9994
2 41888  34.9504 332.8330 0013840 109.8483 250.3721 15.16014488292772
CYGFM06                 
1 41889U 16078F   22088.88056421  .00003651  00000+0  18532-3 0  9992
2 41889  34.9583 327.7752 0012359 109.8290 250.3755 15.16331927292767
CYGFM07                 
1 41890U 16078G   22088.92777645  .00003704  00000+0  18823-3 0  9999
2 41890  34.9522 326.3127 0012082 114.5922 245.6050 15.16288040292752
CYGFM03                 
1 41891U 16078H   22088.99189825  .00003754  00000+0  19082-3 0  9997
2 41891  34.9554 326.3606 0011619 113.4862 246.7072 15.16282834292904
ECHOSTAR 19             
1 41893U 16079A   22088.61970208 -.00000160  00000+0  00000+0 0  9997
2 41893   0.0109 138.0806 0001693 242.3678 292.5232  1.00273081 19269
ARASE (ERG)             
1 41896U 16080A   22088.46531840  .00001396  00000+0  21234-2 0  9996
2 41896  31.5612 257.5308 7020987 191.2850 135.5299  2.54041141 48847
TANSAT                  
1 41898U 16081A   22089.08885428  .00000521  00000+0  12605-3 0  9994
2 41898  98.3633  40.7827 0022172  28.3557 331.8848 14.57049148280149
YIJIAN                  
1 41899U 16081B   22089.12602436  .00000425  00000+0  10549-3 0  9994
2 41899  98.3559  39.2716 0023029  29.5276 330.7224 14.56693896280094
SPARK 1                 
1 41900U 16081C   22089.12478965  .00000456  00000+0  11468-3 0  9990
2 41900  98.3567  37.3557 0026159  32.0506 328.2290 14.55729716279914
SPARK 2                 
1 41901U 16081D   22089.08441755  .00000468  00000+0  11808-3 0  9994
2 41901  98.3514  35.3273 0027661  33.6745 326.6202 14.55383302279845
JCSAT-110A (JCSAT-15)   
1 41903U 16082A   22088.66095626 -.00000373  00000+0  00000+0 0  9996
2 41903   0.0197 176.5613 0001130 197.9386 160.5223  1.00272314 19316
STAR ONE D1             
1 41904U 16082B   22088.55053809 -.00000232  00000+0  00000+0 0  9996
2 41904   0.0216 121.6759 0001910 222.1107 317.3290  1.00271754 19323
SUPERVIEW-1 01          
1 41907U 16083A   22089.15683446  .00005631  00000+0  29196-3 0  9991
2 41907  97.4833 176.9926 0017020 137.8271 280.8701 15.16436088290320
SUPERVIEW-1 02          
1 41908U 16083B   22089.14497222  .00004224  00000+0  21910-3 0  9999
2 41908  97.3775 159.7214 0014975 130.6978 312.9984 15.16587002290328
TJS-2                   
1 41911U 17001A   22088.93021442 -.00000027  00000+0  00000+0 0  9998
2 41911   0.1701  84.5895 0003899  82.6671  61.3509  1.00272205 19288
XINGYUN SHIYAN-1        
1 41913U 17002A   22089.19497589  .00007805  00000+0  42291-3 0  9991
2 41913  97.3088 139.5102 0012088 172.1429 273.5972 15.14800756287909
JILIN-1-03              
1 41914U 17002B   22089.21204439  .00001707  00000+0  10615-3 0  9995
2 41914  97.3024 134.0543 0011326 191.4276 254.0733 15.10854243287609
KAIDUN 1                
1 41915U 17002C   22089.21224352  .00003551  00000+0  20376-3 0  9996
2 41915  97.3056 139.2220 0009601 184.4663 263.0966 15.13133910287904
IRIDIUM 106             
1 41917U 17003A   22088.88567521  .00000237  00000+0  77526-4 0  9997
2 41917  86.4031  12.1817 0001880  78.9427 281.1980 14.34218125272438
IRIDIUM 103             
1 41918U 17003B   22088.52413982  .00000210  00000+0  67752-4 0  9991
2 41918  86.4032  12.2375 0002470  80.1339 280.0136 14.34221083272408
IRIDIUM 109             
1 41919U 17003C   22088.87933084  .00000236  00000+0  77312-4 0  9991
2 41919  86.4033  12.1232 0002208  82.4604 277.6842 14.34220368272423
